CCSDS_OMM_VERS = 2.0
CREATION_DATE  = 
ORIGINATOR     = 

OBJECT_NAME    = IDEFIX & ARIANE 42P R/B
OBJECT_ID      = 2002-021B
CENTER_NAME    = EARTH
REF_FRAME      = TEME
TIME_SYSTEM    = UTC
MEAN_ELEMENT_THEORY = SGP/SGP4

EPOCH          = 2025-12-31T19:29:27.142944
MEAN_MOTION    = 14.30967286
ECCENTRICITY   = .00124724
INCLINATION    = 98.5807
RA_OF_ASC_NODE = 300.2576
ARG_OF_PERICENTER = 31.6824
MEAN_ANOMALY   = 328.5107

EPHEMERIS_TYPE = 0
CLASSIFICATION_TYPE = U
NORAD_CAT_ID   = 27422
ELEMENT_SET_NO = 999
REV_AT_EPOCH   = 23431
BSTAR          = .26066428E-3
MEAN_MOTION_DOT = .642E-5
MEAN_MOTION_DDOT = 0

CCSDS_OMM_VERS = 2.0
CREATION_DATE  = 
ORIGINATOR     = 

OBJECT_NAME    = AQUA
OBJECT_ID      = 2002-022A
CENTER_NAME    = EARTH
REF_FRAME      = TEME
TIME_SYSTEM    = UTC
MEAN_ELEMENT_THEORY = SGP/SGP4

EPOCH          = 2025-12-31T22:14:01.933728
MEAN_MOTION    = 14.61783896
ECCENTRICITY   = .0001962
INCLINATION    = 98.4058
RA_OF_ASC_NODE = 327.1196
ARG_OF_PERICENTER = 94.7781
MEAN_ANOMALY   = 340.6230

EPHEMERIS_TYPE = 0
CLASSIFICATION_TYPE = U
NORAD_CAT_ID   = 27424
ELEMENT_SET_NO = 999
REV_AT_EPOCH   = 25883
BSTAR          = .42628E-3
MEAN_MOTION_DOT = .2078E-4
MEAN_MOTION_DDOT = 0

CCSDS_OMM_VERS = 2.0
CREATION_DATE  = 
ORIGINATOR     = 

OBJECT_NAME    = CZ-4B R/B
OBJECT_ID      = 2002-024C
CENTER_NAME    = EARTH
REF_FRAME      = TEME
TIME_SYSTEM    = UTC
MEAN_ELEMENT_THEORY = SGP/SGP4

EPOCH          = 2026-01-01T04:04:04.520928
MEAN_MOTION    = 14.14532609
ECCENTRICITY   = .0049669
INCLINATION    = 98.8970
RA_OF_ASC_NODE = 54.8708
ARG_OF_PERICENTER = 213.9244
MEAN_ANOMALY   = 213.6002

EPHEMERIS_TYPE = 0
CLASSIFICATION_TYPE = U
NORAD_CAT_ID   = 27432
ELEMENT_SET_NO = 999
REV_AT_EPOCH   = 21969
BSTAR          = .86887E-4
MEAN_MOTION_DOT = .124E-5
MEAN_MOTION_DDOT = 0

CCSDS_OMM_VERS = 2.0
CREATION_DATE  = 
ORIGINATOR     = 

OBJECT_NAME    = MIDORI II (ADEOS-II)
OBJECT_ID      = 2002-056A
CENTER_NAME    = EARTH
REF_FRAME      = TEME
TIME_SYSTEM    = UTC
MEAN_ELEMENT_THEORY = SGP/SGP4

EPOCH          = 2025-12-31T21:32:40.479072
MEAN_MOTION    = 14.29222467
ECCENTRICITY   = .0001136
INCLINATION    = 98.7661
RA_OF_ASC_NODE = 318.9570
ARG_OF_PERICENTER = 138.5969
MEAN_ANOMALY   = 221.5299

EPHEMERIS_TYPE = 0
CLASSIFICATION_TYPE = U
NORAD_CAT_ID   = 27597
ELEMENT_SET_NO = 999
REV_AT_EPOCH   = 20061
BSTAR          = .26567E-3
MEAN_MOTION_DOT = .63E-5
MEAN_MOTION_DDOT = 0

CCSDS_OMM_VERS = 2.0
CREATION_DATE  = 
ORIGINATOR     = 

OBJECT_NAME    = H-2A R/B
OBJECT_ID      = 2002-056E
CENTER_NAME    = EARTH
REF_FRAME      = TEME
TIME_SYSTEM    = UTC
MEAN_ELEMENT_THEORY = SGP/SGP4

EPOCH          = 2025-12-31T20:55:06.170880
MEAN_MOTION    = 14.33696674
ECCENTRICITY   = .0070484
INCLINATION    = 98.3090
RA_OF_ASC_NODE = 323.8694
ARG_OF_PERICENTER = 4.6905
MEAN_ANOMALY   = 48.7705

EPHEMERIS_TYPE = 0
CLASSIFICATION_TYPE = U
NORAD_CAT_ID   = 27601
ELEMENT_SET_NO = 999
REV_AT_EPOCH   = 20439
BSTAR          = .27707E-3
MEAN_MOTION_DOT = .749E-5
MEAN_MOTION_DDOT = 0

CCSDS_OMM_VERS = 2.0
CREATION_DATE  = 
ORIGINATOR     = 

OBJECT_NAME    = CZ-4B R/B
OBJECT_ID      = 2003-049C
CENTER_NAME    = EARTH
REF_FRAME      = TEME
TIME_SYSTEM    = UTC
MEAN_ELEMENT_THEORY = SGP/SGP4

EPOCH          = 2025-12-31T23:44:50.867232
MEAN_MOTION    = 14.54931533
ECCENTRICITY   = .004933
INCLINATION    = 98.6801
RA_OF_ASC_NODE = 353.2819
ARG_OF_PERICENTER = 78.5466
MEAN_ANOMALY   = 282.1264

EPHEMERIS_TYPE = 0
CLASSIFICATION_TYPE = U
NORAD_CAT_ID   = 28059
ELEMENT_SET_NO = 999
REV_AT_EPOCH   = 17675
BSTAR          = .19592E-3
MEAN_MOTION_DOT = .805E-5
MEAN_MOTION_DDOT = 0

CCSDS_OMM_VERS = 2.0
CREATION_DATE  = 
ORIGINATOR     = 

OBJECT_NAME    = CZ-2C R/B
OBJECT_ID      = 2004-012C
CENTER_NAME    = EARTH
REF_FRAME      = TEME
TIME_SYSTEM    = UTC
MEAN_ELEMENT_THEORY = SGP/SGP4

EPOCH          = 2026-01-01T03:47:05.697312
MEAN_MOTION    = 15.57168624
ECCENTRICITY   = .0016704
INCLINATION    = 97.7396
RA_OF_ASC_NODE = 60.4022
ARG_OF_PERICENTER = 195.4460
MEAN_ANOMALY   = 164.6286

EPHEMERIS_TYPE = 0
CLASSIFICATION_TYPE = U
NORAD_CAT_ID   = 28222
ELEMENT_SET_NO = 999
REV_AT_EPOCH   = 19374
BSTAR          = .75238E-3
MEAN_MOTION_DOT = .55157E-3
MEAN_MOTION_DDOT = 0

CCSDS_OMM_VERS = 2.0
CREATION_DATE  = 
ORIGINATOR     = 

OBJECT_NAME    = SL-16 R/B
OBJECT_ID      = 2004-021B
CENTER_NAME    = EARTH
REF_FRAME      = TEME
TIME_SYSTEM    = UTC
MEAN_ELEMENT_THEORY = SGP/SGP4

EPOCH          = 2026-01-01T03:19:21.011232
MEAN_MOTION    = 14.14584940
ECCENTRICITY   = .000418
INCLINATION    = 71.0011
RA_OF_ASC_NODE = 14.2547
ARG_OF_PERICENTER = 167.3274
MEAN_ANOMALY   = 192.7954

EPHEMERIS_TYPE = 0
CLASSIFICATION_TYPE = U
NORAD_CAT_ID   = 28353
ELEMENT_SET_NO = 999
REV_AT_EPOCH   = 11328
BSTAR          = .24711E-3
MEAN_MOTION_DOT = .427E-5
MEAN_MOTION_DDOT = 0

CCSDS_OMM_VERS = 2.0
CREATION_DATE  = 
ORIGINATOR     = 

OBJECT_NAME    = CZ-4B R/B
OBJECT_ID      = 2004-035C
CENTER_NAME    = EARTH
REF_FRAME      = TEME
TIME_SYSTEM    = UTC
MEAN_ELEMENT_THEORY = SGP/SGP4

EPOCH          = 2026-01-01T01:58:55.761312
MEAN_MOTION    = 15.27734268
ECCENTRICITY   = .0032202
INCLINATION    = 97.3588
RA_OF_ASC_NODE = 36.1709
ARG_OF_PERICENTER = 205.8020
MEAN_ANOMALY   = 154.1615

EPHEMERIS_TYPE = 0
CLASSIFICATION_TYPE = U
NORAD_CAT_ID   = 28415
ELEMENT_SET_NO = 999
REV_AT_EPOCH   = 16958
BSTAR          = .47566E-3
MEAN_MOTION_DOT = .1302E-3
MEAN_MOTION_DDOT = 0

CCSDS_OMM_VERS = 2.0
CREATION_DATE  = 
ORIGINATOR     = 

OBJECT_NAME    = CZ-2C R/B
OBJECT_ID      = 2004-046B
CENTER_NAME    = EARTH
REF_FRAME      = TEME
TIME_SYSTEM    = UTC
MEAN_ELEMENT_THEORY = SGP/SGP4

EPOCH          = 2026-01-01T04:07:04.765152
MEAN_MOTION    = 14.26955697
ECCENTRICITY   = .0139455
INCLINATION    = 98.1998
RA_OF_ASC_NODE = 280.3431
ARG_OF_PERICENTER = 355.0443
MEAN_ANOMALY   = 4.9350

EPHEMERIS_TYPE = 0
CLASSIFICATION_TYPE = U
NORAD_CAT_ID   = 28480
ELEMENT_SET_NO = 999
REV_AT_EPOCH   = 9887
BSTAR          = .21957E-3
MEAN_MOTION_DOT = .55E-5
MEAN_MOTION_DDOT = 0

CCSDS_OMM_VERS = 2.0
CREATION_DATE  = 
ORIGINATOR     = 

OBJECT_NAME    = ARIANE 5 R/B
OBJECT_ID      = 2004-049H
CENTER_NAME    = EARTH
REF_FRAME      = TEME
TIME_SYSTEM    = UTC
MEAN_ELEMENT_THEORY = SGP/SGP4

EPOCH          = 2025-12-31T23:46:17.330304
MEAN_MOTION    = 14.85073605
ECCENTRICITY   = .0083863
INCLINATION    = 98.2527
RA_OF_ASC_NODE = 166.9639
ARG_OF_PERICENTER = 209.7933
MEAN_ANOMALY   = 149.8493

EPHEMERIS_TYPE = 0
CLASSIFICATION_TYPE = U
NORAD_CAT_ID   = 28499
ELEMENT_SET_NO = 999
REV_AT_EPOCH   = 13574
BSTAR          = .28745E-3
MEAN_MOTION_DOT = .2551E-4
MEAN_MOTION_DDOT = 0

CCSDS_OMM_VERS = 2.0
CREATION_DATE  = 
ORIGINATOR     = 

OBJECT_NAME    = CZ-2D R/B
OBJECT_ID      = 2005-024B
CENTER_NAME    = EARTH
REF_FRAME      = TEME
TIME_SYSTEM    = UTC
MEAN_ELEMENT_THEORY = SGP/SGP4

EPOCH          = 2025-12-31T14:12:30.038976
MEAN_MOTION    = 15.54429220
ECCENTRICITY   = .00030503
INCLINATION    = 97.3623
RA_OF_ASC_NODE = 13.5482
ARG_OF_PERICENTER = 274.1896
MEAN_ANOMALY   = 85.9009

EPHEMERIS_TYPE = 0
CLASSIFICATION_TYPE = U
NORAD_CAT_ID   = 28738
ELEMENT_SET_NO = 999
REV_AT_EPOCH   = 12918
BSTAR          = .66266711E-3
MEAN_MOTION_DOT = .43589E-3
MEAN_MOTION_DDOT = 0

