IDEFIX & ARIANE 42P R/B 
1 27422U 02021B   25365.81211971  .00000642  00000+0  26066-3 0  9997
2 27422  98.5807 300.2576 0012472  31.6824 328.5107 14.30967286234314
AQUA                    
1 27424U 02022A   25365.92641127  .00002078  00000+0  42628-3 0  9999
2 27424  98.4058 327.1196 0001962  94.7781 340.6230 14.61783896258835
CZ-4B R/B               
1 27432U 02024C   26001.16949677  .00000124  00000+0  86887-4 0  9991
2 27432  98.8970  54.8708 0049669 213.9244 213.6002 14.14532609219698
MIDORI II (ADEOS-II)    
1 27597U 02056A   25365.89769073  .00000630  00000+0  26567-3 0  9990
2 27597  98.7661 318.9570 0001136 138.5969 221.5299 14.29222467200612
H-2A R/B                
1 27601U 02056E   25365.87159920  .00000749  00000+0  27707-3 0  9996
2 27601  98.3090 323.8694 0070484   4.6905  48.7705 14.33696674204397
CZ-4B R/B               
1 28059U 03049C   25365.98947763  .00000805  00000+0  19592-3 0  9995
2 28059  98.6801 353.2819 0049330  78.5466 282.1264 14.54931533176753
CZ-2C R/B               
1 28222U 04012C   26001.15770483  .00055157  00000+0  75238-3 0  9997
2 28222  97.7396  60.4022 0016704 195.4460 164.6286 15.57168624193742
SL-16 R/B               
1 28353U 04021B   26001.13843763  .00000427  00000+0  24711-3 0  9992
2 28353  71.0011  14.2547 0004180 167.3274 192.7954 14.14584940113281
CZ-4B R/B               
1 28415U 04035C   26001.08258983  .00013020  00000+0  47566-3 0  9990
2 28415  97.3588  36.1709 0032202 205.8020 154.1615 15.27734268169581
CZ-2C R/B               
1 28480U 04046B   26001.17158293  .00000550  00000+0  21957-3 0  9997
2 28480  98.1998 280.3431 0139455 355.0443   4.9350 14.26955697 98877
ARIANE 5 R/B            
1 28499U 04049H   25365.99047836  .00002551  00000+0  28745-3 0  9997
2 28499  98.2527 166.9639 0083863 209.7933 149.8493 14.85073605135745
CZ-2D R/B               
1 28738U 05024B   25365.59201434  .00043589  00000+0  66267-3 0  9996
2 28738  97.3623  13.5482 0003050 274.1896  85.9009 15.54429220129184
